CCSDS_OMM_VERS = 2.0
CREATION_DATE  = 
ORIGINATOR     = 

OBJECT_NAME    = PRC TEST SPACECRAFT 4
OBJECT_ID      = 2026-024A
CENTER_NAME    = EARTH
REF_FRAME      = TEME
TIME_SYSTEM    = UTC
MEAN_ELEMENT_THEORY = SGP/SGP4

EPOCH          = 2026-03-07T18:02:16.017792
MEAN_MOTION    = 14.91686513
ECCENTRICITY   = .0006093
INCLINATION    = 49.9864
RA_OF_ASC_NODE = 31.8692
ARG_OF_PERICENTER = 352.8159
MEAN_ANOMALY   = 7.2694

EPHEMERIS_TYPE = 0
CLASSIFICATION_TYPE = U
NORAD_CAT_ID   = 67689
ELEMENT_SET_NO = 999
REV_AT_EPOCH   = 429
BSTAR          = .49199E-4
MEAN_MOTION_DOT = .256E-5
MEAN_MOTION_DDOT = 0

CCSDS_OMM_VERS = 2.0
CREATION_DATE  = 
ORIGINATOR     = 

OBJECT_NAME    = CZ-2F R/B
OBJECT_ID      = 2026-024B
CENTER_NAME    = EARTH
REF_FRAME      = TEME
TIME_SYSTEM    = UTC
MEAN_ELEMENT_THEORY = SGP/SGP4

EPOCH          = 2026-03-07T08:36:01.478880
MEAN_MOTION    = 15.34223665
ECCENTRICITY   = .01747418
INCLINATION    = 49.9888
RA_OF_ASC_NODE = 26.2910
ARG_OF_PERICENTER = 265.2003
MEAN_ANOMALY   = 92.8984

EPHEMERIS_TYPE = 0
CLASSIFICATION_TYPE = U
NORAD_CAT_ID   = 67690
ELEMENT_SET_NO = 999
REV_AT_EPOCH   = 433
BSTAR          = .47790213E-3
MEAN_MOTION_DOT = .26288E-3
MEAN_MOTION_DDOT = 0

CCSDS_OMM_VERS = 2.0
CREATION_DATE  = 
ORIGINATOR     = 

OBJECT_NAME    = CZ-2F DEB
OBJECT_ID      = 2026-024C
CENTER_NAME    = EARTH
REF_FRAME      = TEME
TIME_SYSTEM    = UTC
MEAN_ELEMENT_THEORY = SGP/SGP4

EPOCH          = 2026-03-07T06:59:01.257792
MEAN_MOTION    = 16.04207510
ECCENTRICITY   = .0129998
INCLINATION    = 49.9027
RA_OF_ASC_NODE = 17.0866
ARG_OF_PERICENTER = 279.9035
MEAN_ANOMALY   = 78.7299

EPHEMERIS_TYPE = 0
CLASSIFICATION_TYPE = U
NORAD_CAT_ID   = 67691
ELEMENT_SET_NO = 999
REV_AT_EPOCH   = 443
BSTAR          = .82528E-3
MEAN_MOTION_DOT = .1796216E-1
MEAN_MOTION_DDOT = .11209E-4

CCSDS_OMM_VERS = 2.0
CREATION_DATE  = 
ORIGINATOR     = 

OBJECT_NAME    = CZ-2F DEB
OBJECT_ID      = 2026-024D
CENTER_NAME    = EARTH
REF_FRAME      = TEME
TIME_SYSTEM    = UTC
MEAN_ELEMENT_THEORY = SGP/SGP4

EPOCH          = 2026-03-07T13:53:24.225504
MEAN_MOTION    = 15.24856631
ECCENTRICITY   = .02339052
INCLINATION    = 50.3192
RA_OF_ASC_NODE = 29.0613
ARG_OF_PERICENTER = 271.6617
MEAN_ANOMALY   = 85.7566

EPHEMERIS_TYPE = 0
CLASSIFICATION_TYPE = U
NORAD_CAT_ID   = 67692
ELEMENT_SET_NO = 999
REV_AT_EPOCH   = 430
BSTAR          = .52825319E-2
MEAN_MOTION_DOT = .306029E-2
MEAN_MOTION_DDOT = 0

CCSDS_OMM_VERS = 2.0
CREATION_DATE  = 
ORIGINATOR     = 

OBJECT_NAME    = STARLINK-36748
OBJECT_ID      = 2026-025A
CENTER_NAME    = EARTH
REF_FRAME      = TEME
TIME_SYSTEM    = UTC
MEAN_ELEMENT_THEORY = SGP/SGP4

EPOCH          = 2026-03-07T06:07:06.098880
MEAN_MOTION    = 15.75544590
ECCENTRICITY   = .0002023
INCLINATION    = 97.2816
RA_OF_ASC_NODE = 177.6666
ARG_OF_PERICENTER = 140.9943
MEAN_ANOMALY   = 219.1468

EPHEMERIS_TYPE = 0
CLASSIFICATION_TYPE = U
NORAD_CAT_ID   = 67693
ELEMENT_SET_NO = 999
REV_AT_EPOCH   = 555
BSTAR          = .28364E-2
MEAN_MOTION_DOT = .453055E-2
MEAN_MOTION_DDOT = 0

CCSDS_OMM_VERS = 2.0
CREATION_DATE  = 
ORIGINATOR     = 

OBJECT_NAME    = STARLINK-36753
OBJECT_ID      = 2026-025B
CENTER_NAME    = EARTH
REF_FRAME      = TEME
TIME_SYSTEM    = UTC
MEAN_ELEMENT_THEORY = SGP/SGP4

EPOCH          = 2026-03-07T13:33:18.748512
MEAN_MOTION    = 15.75381937
ECCENTRICITY   = .00016273
INCLINATION    = 97.2834
RA_OF_ASC_NODE = 178.0092
ARG_OF_PERICENTER = 128.1048
MEAN_ANOMALY   = 232.0365

EPHEMERIS_TYPE = 0
CLASSIFICATION_TYPE = U
NORAD_CAT_ID   = 67694
ELEMENT_SET_NO = 999
REV_AT_EPOCH   = 561
BSTAR          = .29167629E-2
MEAN_MOTION_DOT = .463202E-2
MEAN_MOTION_DDOT = 0

CCSDS_OMM_VERS = 2.0
CREATION_DATE  = 
ORIGINATOR     = 

OBJECT_NAME    = STARLINK-36750
OBJECT_ID      = 2026-025C
CENTER_NAME    = EARTH
REF_FRAME      = TEME
TIME_SYSTEM    = UTC
MEAN_ELEMENT_THEORY = SGP/SGP4

EPOCH          = 2026-03-07T11:08:20.281632
MEAN_MOTION    = 15.80933468
ECCENTRICITY   = .00012201
INCLINATION    = 97.2824
RA_OF_ASC_NODE = 177.9946
ARG_OF_PERICENTER = 89.8871
MEAN_ANOMALY   = 270.2538

EPHEMERIS_TYPE = 0
CLASSIFICATION_TYPE = U
NORAD_CAT_ID   = 67695
ELEMENT_SET_NO = 999
REV_AT_EPOCH   = 559
BSTAR          = .22805067E-2
MEAN_MOTION_DOT = .463186E-2
MEAN_MOTION_DDOT = 0

CCSDS_OMM_VERS = 2.0
CREATION_DATE  = 
ORIGINATOR     = 

OBJECT_NAME    = STARLINK-36401
OBJECT_ID      = 2026-025D
CENTER_NAME    = EARTH
REF_FRAME      = TEME
TIME_SYSTEM    = UTC
MEAN_ELEMENT_THEORY = SGP/SGP4

EPOCH          = 2026-03-07T13:13:29.712576
MEAN_MOTION    = 15.75221402
ECCENTRICITY   = .00011612
INCLINATION    = 97.2842
RA_OF_ASC_NODE = 178.0288
ARG_OF_PERICENTER = 58.1851
MEAN_ANOMALY   = 301.9527

EPHEMERIS_TYPE = 0
CLASSIFICATION_TYPE = U
NORAD_CAT_ID   = 67696
ELEMENT_SET_NO = 999
REV_AT_EPOCH   = 560
BSTAR          = .40930374E-3
MEAN_MOTION_DOT = .61444E-3
MEAN_MOTION_DDOT = 0

CCSDS_OMM_VERS = 2.0
CREATION_DATE  = 
ORIGINATOR     = 

OBJECT_NAME    = STARLINK-36704
OBJECT_ID      = 2026-025E
CENTER_NAME    = EARTH
REF_FRAME      = TEME
TIME_SYSTEM    = UTC
MEAN_ELEMENT_THEORY = SGP/SGP4

EPOCH          = 2026-03-07T13:30:15.876864
MEAN_MOTION    = 15.75231818
ECCENTRICITY   = .00015165
INCLINATION    = 97.2840
RA_OF_ASC_NODE = 178.0117
ARG_OF_PERICENTER = 72.2911
MEAN_ANOMALY   = 287.8520

EPHEMERIS_TYPE = 0
CLASSIFICATION_TYPE = U
NORAD_CAT_ID   = 67697
ELEMENT_SET_NO = 999
REV_AT_EPOCH   = 560
BSTAR          = .740028E-3
MEAN_MOTION_DOT = .11191E-2
MEAN_MOTION_DDOT = 0

CCSDS_OMM_VERS = 2.0
CREATION_DATE  = 
ORIGINATOR     = 

OBJECT_NAME    = STARLINK-36697
OBJECT_ID      = 2026-025F
CENTER_NAME    = EARTH
REF_FRAME      = TEME
TIME_SYSTEM    = UTC
MEAN_ELEMENT_THEORY = SGP/SGP4

EPOCH          = 2026-03-07T06:25:34.302432
MEAN_MOTION    = 15.80877945
ECCENTRICITY   = .0000653
INCLINATION    = 97.2839
RA_OF_ASC_NODE = 177.8028
ARG_OF_PERICENTER = 11.0115
MEAN_ANOMALY   = 349.1168

EPHEMERIS_TYPE = 0
CLASSIFICATION_TYPE = U
NORAD_CAT_ID   = 67698
ELEMENT_SET_NO = 999
REV_AT_EPOCH   = 556
BSTAR          = .15074E-2
MEAN_MOTION_DOT = .299582E-2
MEAN_MOTION_DDOT = 0

CCSDS_OMM_VERS = 2.0
CREATION_DATE  = 
ORIGINATOR     = 

OBJECT_NAME    = STARLINK-36716
OBJECT_ID      = 2026-025G
CENTER_NAME    = EARTH
REF_FRAME      = TEME
TIME_SYSTEM    = UTC
MEAN_ELEMENT_THEORY = SGP/SGP4

EPOCH          = 2026-03-07T14:00:01.000224
MEAN_MOTION    = 15.75143002
ECCENTRICITY   = .00012908
INCLINATION    = 97.2843
RA_OF_ASC_NODE = 178.1058
ARG_OF_PERICENTER = 98.3162
MEAN_ANOMALY   = 186.9029

EPHEMERIS_TYPE = 0
CLASSIFICATION_TYPE = U
NORAD_CAT_ID   = 67699
ELEMENT_SET_NO = 999
REV_AT_EPOCH   = 567
BSTAR          = .10573611E-4
MEAN_MOTION_DOT = .1445E-4
MEAN_MOTION_DDOT = 0

CCSDS_OMM_VERS = 2.0
CREATION_DATE  = 
ORIGINATOR     = 

OBJECT_NAME    = STARLINK-36712
OBJECT_ID      = 2026-025H
CENTER_NAME    = EARTH
REF_FRAME      = TEME
TIME_SYSTEM    = UTC
MEAN_ELEMENT_THEORY = SGP/SGP4

EPOCH          = 2026-03-07T07:10:07.464000
MEAN_MOTION    = 15.75209001
ECCENTRICITY   = .0001903
INCLINATION    = 97.2853
RA_OF_ASC_NODE = 177.7589
ARG_OF_PERICENTER = 9.4213
MEAN_ANOMALY   = 350.7087

EPHEMERIS_TYPE = 0
CLASSIFICATION_TYPE = U
NORAD_CAT_ID   = 67700
ELEMENT_SET_NO = 999
REV_AT_EPOCH   = 556
BSTAR          = .23508E-2
MEAN_MOTION_DOT = .366276E-2
MEAN_MOTION_DDOT = 0

CCSDS_OMM_VERS = 2.0
CREATION_DATE  = 
ORIGINATOR     = 

OBJECT_NAME    = STARLINK-36713
OBJECT_ID      = 2026-025J
CENTER_NAME    = EARTH
REF_FRAME      = TEME
TIME_SYSTEM    = UTC
MEAN_ELEMENT_THEORY = SGP/SGP4

EPOCH          = 2026-03-07T11:47:05.643456
MEAN_MOTION    = 15.75313916
ECCENTRICITY   = .00014938
INCLINATION    = 97.2860
RA_OF_ASC_NODE = 177.9562
ARG_OF_PERICENTER = 87.0610
MEAN_ANOMALY   = 273.0826

EPHEMERIS_TYPE = 0
CLASSIFICATION_TYPE = U
NORAD_CAT_ID   = 67701
ELEMENT_SET_NO = 999
REV_AT_EPOCH   = 560
BSTAR          = .18442105E-2
MEAN_MOTION_DOT = .285885E-2
MEAN_MOTION_DDOT = 0

CCSDS_OMM_VERS = 2.0
CREATION_DATE  = 
ORIGINATOR     = 

OBJECT_NAME    = STARLINK-36695
OBJECT_ID      = 2026-025K
CENTER_NAME    = EARTH
REF_FRAME      = TEME
TIME_SYSTEM    = UTC
MEAN_ELEMENT_THEORY = SGP/SGP4

EPOCH          = 2026-03-07T11:50:08.520288
MEAN_MOTION    = 15.75344256
ECCENTRICITY   = .00017889
INCLINATION    = 97.2861
RA_OF_ASC_NODE = 177.9504
ARG_OF_PERICENTER = 79.2222
MEAN_ANOMALY   = 280.9244

EPHEMERIS_TYPE = 0
CLASSIFICATION_TYPE = U
NORAD_CAT_ID   = 67702
ELEMENT_SET_NO = 999
REV_AT_EPOCH   = 559
BSTAR          = .19339378E-2
MEAN_MOTION_DOT = .300722E-2
MEAN_MOTION_DDOT = 0

CCSDS_OMM_VERS = 2.0
CREATION_DATE  = 
ORIGINATOR     = 

OBJECT_NAME    = STARLINK-36630
OBJECT_ID      = 2026-025L
CENTER_NAME    = EARTH
REF_FRAME      = TEME
TIME_SYSTEM    = UTC
MEAN_ELEMENT_THEORY = SGP/SGP4

EPOCH          = 2026-03-07T14:00:01.000224
MEAN_MOTION    = 15.75156735
ECCENTRICITY   = .00017257
INCLINATION    = 97.2841
RA_OF_ASC_NODE = 178.1431
ARG_OF_PERICENTER = 103.4138
MEAN_ANOMALY   = 271.7461

EPHEMERIS_TYPE = 0
CLASSIFICATION_TYPE = U
NORAD_CAT_ID   = 67703
ELEMENT_SET_NO = 999
REV_AT_EPOCH   = 552
BSTAR          = .73466802E-4
MEAN_MOTION_DOT = .10827E-3
MEAN_MOTION_DDOT = 0

